LINGQIAO VIDEO A        
1 40959U 15057B   26169.85159397  .00000005  00000+0  75204-5 0  9993
2 40959  97.6618 164.5715 0015139 264.5738  95.3746 14.77393055575655
LINGQIAO VIDEO B        
1 40960U 15057C   26169.89586940  .00000797  00000+0  11835-3 0  9993
2 40960  97.6583 165.7767 0015287 264.2478  95.6990 14.77502171575701
JILIN-1                 
1 40961U 15057D   26169.84095720  .00000606  00000+0  90326-4 0  9992
2 40961  97.6507 169.1255 0015345 257.0085 102.9414 14.78162556575856
FOX-1A (AO-85)          
1 40967U 15058D   26169.69405078  .00001823  00000+0  17186-3 0  9997
2 40967  64.7758 274.3012 0130534  56.0068 305.3365 14.90975407113797
SINOD-D 1               
1 40968U 15058E   26169.68278117  .00002478  00000+0  20562-3 0  9998
2 40968  64.7749 254.2293 0119134  52.4856 308.7015 14.95913324116881
ELEKTRO-L 2             
1 41105U 15074A   26169.03651196 -.00000126  00000+0  00000+0 0  9991
2 41105   6.6975  70.5132 0000902 256.1704 298.2263  1.00270556 38515
DAMPE                   
1 41173U 15078A   26169.86797523  .00001039  00000+0  37464-4 0  9998
2 41173  97.4553 175.3432 0013794  71.8291 288.4450 15.30788879584800
ORBCOMM FM110           
1 41182U 15081D   26169.81606397  .00000495  00000+0  14087-3 0  9995
2 41182  47.0031 353.7412 0002481  86.1392 273.9778 14.58882561557864
ORBCOMM FM112           
1 41184U 15081F   26169.30697124  .00000434  00000+0  12796-3 0  9997
2 41184  46.9989 264.9520 0003795 222.4136 137.6457 14.58905836559110
ORBCOMM FM113           
1 41185U 15081G   26169.69455345  .00000243  00000+0  87553-4 0  9999
2 41185  47.0007 263.4964 0002335 229.6651 130.4031 14.58859727559150
ORBCOMM FM108           
1 41187U 15081J   26169.04056137  .00000258  00000+0  90814-4 0  9996
2 41187  47.0030 178.1625 0002987 224.9174 135.1471 14.58870752560204
ORBCOMM FM117           
1 41188U 15081K   26169.41699686  .00000163  00000+0  70744-4 0  9995
2 41188  46.9993 175.0163 0003526 229.3841 130.6739 14.58865684560300
ORBCOMM FM116           
1 41189U 15081L   26169.53440260  .00000437  00000+0  12864-3 0  9993
2 41189  47.0018 264.2516 0000528  80.7304 279.3642 14.58885082559133
HORYU-4                 
1 41340U 16012D   26169.06253989  .00440932  72868-4  98167-3 0  9999
2 41340  30.9844  72.5998 0005941 278.9863  81.0127 15.96640257570954
ZIYUAN 3-02 (ZY 3-02)   
1 41556U 16033A   26169.89979824  .00004457  00000+0  20259-3 0  9994
2 41556  97.3834 245.6423 0012375 285.0307  74.9559 15.21192893558240
CARTOSAT-2C             
1 41599U 16040A   26169.83891251  .00002817  00000+0  13694-3 0  9993
2 41599  97.4475 229.7951 0010043 125.8640 234.3529 15.19200636553964
LAPAN-A3                
1 41603U 16040E   26169.82288924  .00002819  00000+0  90349-4 0  9990
2 41603  97.1489 165.9148 0010698  20.3292 339.8374 15.33113460555065
GAOFEN-3                
1 41727U 16049A   26169.88780520 -.00000178  00000+0 -40719-4 0  9995
2 41727  98.4006 177.6482 0001433  99.2969 260.8383 14.42215081518899
CAS-2T & KS-1Q          
1 41847U 16066G   26169.76436007  .00001345  00000+0  19556-3 0  9991
2 41847  98.3822 245.4827 0342837 124.7096 238.6899 14.44698862505025
YUNHAI-1 01             
1 41857U 16068A   26169.42345718  .00000594  00000+0  23449-3 0  9996
2 41857  98.5824 180.4192 0006126  39.9993 320.1641 14.32707701502001
RESOURCESAT-2A          
1 41877U 16074A   26169.83035064  .00000173  00000+0  99227-4 0  9991
2 41877  98.7526 243.3215 0003314  80.7707 279.3845 14.21616972494538
TANSAT                  
1 41898U 16081A   26169.89334424  .00000001  00000+0  10731-4 0  9993
2 41898  98.5360 170.2015 0019453 306.7210  53.2202 14.59951463504875
JILIN-1 03              
1 41914U 17002B   26169.84334492  .00010611  00000+0  25392-3 0  9992
2 41914  97.1947 176.9045 0006996 149.5692 210.5962 15.41609188522115
CARTOSAT-2D             
1 41948U 17008A   26169.87093204  .00002427  00000+0  11850-3 0  9991
2 41948  97.4100 229.1458 0003838 227.7364 132.3546 15.19215209517836
