OBJECT_NAME,OBJECT_ID,EPOCH,MEAN_MOTION,ECCENTRICITY,INCLINATION,RA_OF_ASC_NODE,ARG_OF_PERICENTER,MEAN_ANOMALY,EPHEMERIS_TYPE,CLASSIFICATION_TYPE,NORAD_CAT_ID,ELEMENT_SET_NO,REV_AT_EPOCH,BSTAR,MEAN_MOTION_DOT,MEAN_MOTION_DDOT
LINGQIAO VIDEO A,2015-057B,2026-06-18T20:26:17.719008,14.77393055,.0015139,97.6618,164.5715,264.5738,95.3746,0,U,40959,999,57565,.75204E-5,.5E-7,0
LINGQIAO VIDEO B,2015-057C,2026-06-18T21:30:03.116160,14.77502171,.0015287,97.6583,165.7767,264.2478,95.6990,0,U,40960,999,57570,.11835E-3,.797E-5,0
JILIN-1,2015-057D,2026-06-18T20:10:58.702080,14.78162556,.0015345,97.6507,169.1255,257.0085,102.9414,0,U,40961,999,57585,.90326E-4,.606E-5,0
FOX-1A (AO-85),2015-058D,2026-06-18T16:39:25.987392,14.90975407,.0130534,64.7758,274.3012,56.0068,305.3365,0,U,40967,999,11379,.17186E-3,.1823E-4,0
SINOD-D 1,2015-058E,2026-06-18T16:23:12.293088,14.95913324,.0119134,64.7749,254.2293,52.4856,308.7015,0,U,40968,999,11688,.20562E-3,.2478E-4,0
ELEKTRO-L 2,2015-074A,2026-06-18T00:52:34.633344,1.00270556,.00009025,6.6975,70.5132,256.1704,298.2263,0,U,41105,999,3851,0,-.126E-5,0
DAMPE,2015-078A,2026-06-18T20:49:53.059872,15.30788879,.0013794,97.4553,175.3432,71.8291,288.4450,0,U,41173,999,58480,.37464E-4,.1039E-4,0
ORBCOMM FM110,2015-081D,2026-06-18T19:35:07.927008,14.58882561,.0002481,47.0031,353.7412,86.1392,273.9778,0,U,41182,999,55786,.14087E-3,.495E-5,0
ORBCOMM FM112,2015-081F,2026-06-18T07:22:02.315136,14.58905836,.0003795,46.9989,264.9520,222.4136,137.6457,0,U,41184,999,55911,.12796E-3,.434E-5,0
ORBCOMM FM113,2015-081G,2026-06-18T16:40:09.418080,14.58859727,.0002335,47.0007,263.4964,229.6651,130.4031,0,U,41185,999,55915,.87553E-4,.243E-5,0
ORBCOMM FM108,2015-081J,2026-06-18T00:58:24.502368,14.58870752,.00029879,47.0030,178.1625,224.9174,135.1471,0,U,41187,999,56020,.90814462E-4,.258E-5,0
ORBCOMM FM117,2015-081K,2026-06-18T10:00:28.528704,14.58865684,.0003526,46.9993,175.0163,229.3841,130.6739,0,U,41188,999,56030,.70744E-4,.163E-5,0
ORBCOMM FM116,2015-081L,2026-06-18T12:49:32.384640,14.58885082,.0000528,47.0018,264.2516,80.7304,279.3642,0,U,41189,999,55913,.12864E-3,.437E-5,0
HORYU-4,2016-012D,2026-06-18T01:30:03.446496,15.96640257,.00059419,30.9844,72.5998,278.9863,81.0127,0,U,41340,999,57095,.98166813E-3,.440932E-2,.72867516E-4
ZIYUAN 3-02 (ZY 3-02),2016-033A,2026-06-18T21:35:42.567936,15.21192893,.0012375,97.3834,245.6423,285.0307,74.9559,0,U,41556,999,55824,.20259E-3,.4457E-4,0
CARTOSAT-2C,2016-040A,2026-06-18T20:08:02.040864,15.19200636,.0010043,97.4475,229.7951,125.8640,234.3529,0,U,41599,999,55396,.13694E-3,.2817E-4,0
LAPAN-A3,2016-040E,2026-06-18T19:44:57.630336,15.33113460,.0010698,97.1489,165.9148,20.3292,339.8374,0,U,41603,999,55506,.90349E-4,.2819E-4,0
GAOFEN-3,2016-049A,2026-06-18T21:18:26.369280,14.42215081,.0001433,98.4006,177.6482,99.2969,260.8383,0,U,41727,999,51889,-.40719E-4,-.178E-5,0
CAS-2T & KS-1Q,2016-066G,2026-06-18T18:20:40.710048,14.44698862,.0342837,98.3822,245.4827,124.7096,238.6899,0,U,41847,999,50502,.19556E-3,.1345E-4,0
YUNHAI-1 01,2016-068A,2026-06-18T10:09:46.700352,14.32707701,.0006126,98.5824,180.4192,39.9993,320.1641,0,U,41857,999,50200,.23449E-3,.594E-5,0
RESOURCESAT-2A,2016-074A,2026-06-18T19:55:42.295296,14.21616972,.0003314,98.7526,243.3215,80.7707,279.3845,0,U,41877,999,49453,.99227E-4,.173E-5,0
TANSAT,2016-081A,2026-06-18T21:26:24.942336,14.59951463,.0019453,98.5360,170.2015,306.7210,53.2202,0,U,41898,999,50487,.10731E-4,.1E-7,0
JILIN-1 03,2017-002B,2026-06-18T20:14:25.001088,15.41609188,.0006996,97.1947,176.9045,149.5692,210.5962,0,U,41914,999,52211,.25392E-3,.10611E-3,0
CARTOSAT-2D,2017-008A,2026-06-18T20:54:08.528256,15.19215209,.0003838,97.4100,229.1458,227.7364,132.3546,0,U,41948,999,51783,.1185E-3,.2427E-4,0
